     2.10           N: GPS NAV DATA                         RINEX VERSION / TYPE
teqc  2008Oct2      WCDA Operator       20090112 00:18:58UTCPGM / RUN BY / DATE
Solaris x86 5.10|AMD64|cc SC5.8 -xarch=amd64|=+|=+          COMMENT
teqc  2008Oct2      WCDA Operator       20090111 01:18:36UTCCOMMENT
                                                            END OF HEADER
10 09  1 11 20  0  0.0-9.348616003990D-06-5.684341886081D-13 0.000000000000D+00
    9.600000000000D+01 3.881250000000D+01 4.318037006431D-09 5.450274718619D-01
    2.322718501091D-06 8.442703168839D-03 1.207739114761D-05 5.153769073486D+03
    7.200000000000D+04-6.519258022308D-08 3.058507944595D+00 1.918524503708D-07
    9.606671673693D-01 1.452500000000D+02 5.790951941878D-01-7.825683113970D-09
   -6.153827760199D-10 1.000000000000D+00 1.514000000000D+03 0.000000000000D+00
    2.800000000000D+00 0.000000000000D+00-2.793967723846D-09 9.600000000000D+01
    6.481800000000D+04 4.000000000000D+00
23 09  1 11 19 59 44.0 3.848630003631D-04 7.958078640513D-13 0.000000000000D+00
    5.000000000000D+00 1.722812500000D+02 4.200532111880D-09-5.851452074752D-01
    8.802860975266D-06 5.763913155533D-03 5.623325705528D-06 5.153659460068D+03
    7.198400000000D+04 7.636845111847D-08-2.197749823867D+00-1.508742570877D-07
    9.709264538640D-01 2.756562500000D+02 2.885055380171D+00-8.161411384115D-09
    3.267993267894D-10 1.000000000000D+00 1.514000000000D+03 0.000000000000D+00
    2.000000000000D+00 0.000000000000D+00-2.002343535423D-08 5.000000000000D+00
    6.736800000000D+04 4.000000000000D+00
21 09  1 11 20  0  0.0 3.432296216488D-05-1.705302565824D-12 0.000000000000D+00
    4.400000000000D+01-2.387500000000D+01 5.604876322739D-09-3.090677836463D+00
   -1.311302185059D-06 1.454042072874D-02 5.202367901802D-06 5.153642539978D+03
    7.200000000000D+04-1.750886440277D-07 2.007736043705D+00-1.899898052216D-07
    9.343529708431D-01 2.671562500000D+02-2.654659724296D+00-8.314989209819D-09
   -3.575148919303D-10 1.000000000000D+00 1.514000000000D+03 0.000000000000D+00
    2.000000000000D+00 0.000000000000D+00-1.164153218269D-08 4.400000000000D+01
    6.937800000000D+04 4.000000000000D+00
16 09  1 11 20  0  0.0 8.269213140011D-05-2.614797267597D-12 0.000000000000D+00
    4.200000000000D+01-1.473750000000D+02 3.933378126701D-09 1.803418150462D+00
   -7.547438144684D-06 4.948816727847D-03 1.181103289127D-05 5.153757228851D+03
    7.200000000000D+04 3.725290298462D-08-8.690866420899D-02 4.656612873077D-08
    9.677882444250D-01 1.531875000000D+02-3.852487807809D-01-7.729250525737D-09
   -2.642967233051D-11 1.000000000000D+00 1.514000000000D+03 0.000000000000D+00
    2.000000000000D+00 0.000000000000D+00-9.778887033463D-09 4.200000000000D+01
    7.048800000000D+04 4.000000000000D+00
26 09  1 11 19 59 44.0 3.525381907821D-05 3.410605131648D-12 0.000000000000D+00
    1.700000000000D+01 1.420000000000D+02 3.760513783351D-09-1.019956934489D+00
    7.722526788712D-06 1.941539708059D-02 4.978850483894D-06 5.153643648148D+03
    7.198400000000D+04 2.458691596985D-07-2.150969652108D+00 3.911554813385D-07
    9.931271705215D-01 3.009687500000D+02 9.651457784242D-01-7.994975879979D-09
    2.582250418238D-10 1.000000000000D+00 1.514000000000D+03 0.000000000000D+00
    2.000000000000D+00 0.000000000000D+00-6.053596735001D-09 1.700000000000D+01
    7.156800000000D+04 4.000000000000D+00
30 09  1 11 19 59 44.0 1.191990450025D-04 2.387423592154D-12 0.000000000000D+00
    3.000000000000D+00-1.413437500000D+02 4.368396246952D-09 1.552231938794D+00
   -7.456168532372D-06 1.116259908304D-02 1.028552651405D-05 5.153664009094D+03
    7.198400000000D+04-7.823109626770D-08-1.491723857886D-01-2.551823854446D-07
    9.511957983116D-01 1.779375000000D+02 1.413751291250D+00-8.009262189347D-09
    2.428672592533D-11 1.000000000000D+00 1.514000000000D+03 0.000000000000D+00
    2.000000000000D+00 0.000000000000D+00-7.916241884232D-09 3.000000000000D+00
    7.171800000000D+04 4.000000000000D+00
 2 09  1 11 22  0  0.0 1.621088013053D-04-1.932676241267D-12 0.000000000000D+00
    5.300000000000D+01-1.668750000000D+01 5.659164298337D-09 7.045307115606D-01
   -9.927898645401D-07 8.901238674298D-03 4.764646291733D-06 5.153587312698D+03
    7.920000000000D+04 1.564621925354D-07 1.975065194559D+00-5.774199962616D-08
    9.415598217116D-01 2.763125000000D+02 2.699152348609D+00-8.564642466022D-09
   -2.678683006471D-10 1.000000000000D+00 1.514000000000D+03 0.000000000000D+00
    2.000000000000D+00 0.000000000000D+00-1.722946763039D-08 5.300000000000D+01
    7.201800000000D+04 4.000000000000D+00
16 09  1 11 22  0  0.0 8.267303928733D-05-2.614797267597D-12 0.000000000000D+00
    4.300000000000D+01-1.290937500000D+02 4.036953869618D-09 2.854006613128D+00
   -6.658956408501D-06 4.951230599545D-03 1.107156276703D-05 5.153751010895D+03
    7.920000000000D+04-1.676380634308D-08-8.696446868205D-02 6.146728992462D-08
    9.677882414992D-01 1.688125000000D+02-3.857094258886D-01-7.708178219420D-09
    1.250052069686D-11 1.000000000000D+00 1.514000000000D+03 0.000000000000D+00
    2.000000000000D+00 0.000000000000D+00-9.778887033463D-09 4.300000000000D+01
    7.201800000000D+04 4.000000000000D+00
21 09  1 11 22  0  0.0 3.431038931012D-05-1.705302565824D-12 0.000000000000D+00
    5.700000000000D+01-2.525000000000D+01 5.664164506616D-09-2.040489525779D+00
   -1.545995473862D-06 1.454066089354D-02 4.895031452179D-06 5.153641878128D+03
    7.920000000000D+04 1.881271600723D-07 2.007673991109D+00-1.788139343262D-07
    9.343507428188D-01 2.699062500000D+02-2.654639018153D+00-8.487853553170D-09
   -1.078616357272D-10 1.000000000000D+00 1.514000000000D+03 0.000000000000D+00
    2.000000000000D+00 0.000000000000D+00-1.164153218269D-08 5.700000000000D+01
    7.201800000000D+04 4.000000000000D+00
 5 09  1 11 22  0  0.0-5.293246358633D-04-5.968558980385D-11 0.000000000000D+00
    4.600000000000D+01-1.566562500000D+02 4.474829251743D-09 3.139514794970D+00
   -8.037313818932D-06 9.379410766996D-03 9.208917617798D-06 5.153646963120D+03
    7.920000000000D+04 6.332993507385D-08-2.022902053990D-01-6.519258022308D-08
    9.452409405307D-01 1.924062500000D+02 1.294568818250D+00-7.872827934884D-09
   -6.321691895271D-11 1.000000000000D+00 1.514000000000D+03 0.000000000000D+00
    2.000000000000D+00 0.000000000000D+00-4.190951585770D-09 4.600000000000D+01
    7.201800000000D+04 4.000000000000D+00
24 09  1 11 22  0  0.0 1.568268053234D-04 3.069544618484D-12 0.000000000000D+00
    9.200000000000D+01-1.990625000000D+01 5.259861951506D-09 2.868622525254D+00
   -9.667128324509D-07 7.052684901282D-03 5.235895514488D-06 5.153654348373D+03
    7.920000000000D+04-1.490116119385D-08 2.037509984435D+00 1.620501279831D-07
    9.510149845628D-01 2.738750000000D+02-6.448066538025D-01-8.240343243372D-09
   -3.253706958526D-10 1.000000000000D+00 1.514000000000D+03 0.000000000000D+00
    2.800000000000D+00 0.000000000000D+00-1.396983861923D-09 9.200000000000D+01
    7.201800000000D+04 4.000000000000D+00
29 09  1 11 22  0  0.0-1.880666241050D-05 2.842170943040D-12 0.000000000000D+00
    5.300000000000D+01 1.946875000000D+01 4.581976572002D-09-1.975211876966D+00
    1.098960638046D-06 3.220799379051D-03 9.179115295410D-06 5.153758403778D+03
    7.920000000000D+04-1.862645149231D-09 9.626357079726D-01 4.470348358154D-08
    9.596580069794D-01 2.005625000000D+02-1.340746074656D+00-7.912472443380D-09
    7.425309293937D-10 1.000000000000D+00 1.514000000000D+03 0.000000000000D+00
    2.000000000000D+00 0.000000000000D+00-8.847564458847D-09 5.300000000000D+01
    7.201800000000D+04 4.000000000000D+00
13 09  1 11 22  0  0.0 2.846061252058D-04 1.364242052659D-12 0.000000000000D+00
    4.500000000000D+01 1.668125000000D+02 3.689439394246D-09 1.399523317204D+00
    8.461996912956D-06 3.660961752757D-03 5.338340997696D-06 5.153771181107D+03
    7.920000000000D+04-2.048909664154D-08-2.149005133067D+00-1.043081283569D-07
    9.952437950075D-01 2.930937500000D+02 1.509380718805D+00-7.919615598064D-09
    3.385855320179D-10 1.000000000000D+00 1.514000000000D+03 0.000000000000D+00
    2.000000000000D+00 0.000000000000D+00-1.117587089539D-08 4.500000000000D+01
    7.201800000000D+04 4.000000000000D+00
10 09  1 11 22  0  0.0-9.352341294289D-06-5.684341886081D-13 0.000000000000D+00
    9.700000000000D+01 3.631250000000D+01 4.275535236061D-09 1.594825376524D+00
    2.129003405571D-06 8.444272913039D-03 1.346319913864D-05 5.153775014877D+03
    7.920000000000D+04-1.471489667892D-07 3.058452107938D+00 5.215406417847D-08
    9.606622812229D-01 1.230312500000D+02 5.794160955090D-01-7.801396388045D-09
   -7.039578941005D-10 1.000000000000D+00 1.514000000000D+03 0.000000000000D+00
    4.000000000000D+00 0.000000000000D+00-2.793967723846D-09 9.700000000000D+01
    7.201800000000D+04 4.000000000000D+00
30 09  1 11 21 59 44.0 1.192158088088D-04 2.387423592154D-12 0.000000000000D+00
    8.000000000000D+00-1.475937500000D+02 4.287678599024D-09 2.602405583724D+00
   -7.580965757370D-06 1.116310723592D-02 9.885057806969D-06 5.153663747787D+03
    7.918400000000D+04 1.247972249985D-07-1.492284682161D-01-5.774199962616D-08
    9.511968764822D-01 1.822187500000D+02 1.413762132936D+00-7.751751462992D-09
   -3.142988060926D-11 1.000000000000D+00 1.514000000000D+03 0.000000000000D+00
    2.000000000000D+00 0.000000000000D+00-7.916241884232D-09 8.000000000000D+00
    7.204800000000D+04 4.000000000000D+00
